ORBCOMM-X               
1 21576U 91050C   25327.13113668  .00000370  00000+0  12235-3 0  9999
2 21576  98.3252  30.3492 0004737  73.5951 286.5760 14.43411921805045
ORBCOMM FM01            
1 23545U 95017A   25327.38913910  .00008971  00000+0  87537-3 0  9991
2 23545  69.9638  36.5058 0002063 359.5132   0.6021 14.92706172636247
ORBCOMM FM02            
1 23546U 95017B   25327.41650208  .00010116  00000+0  95104-3 0  9997
2 23546  69.9649  55.1755 0002864  28.5975 331.5338 14.94130984635912
ORBCOMM FM08            
1 25112U 97084A   25327.42116247  .00001810  00000+0  53778-3 0  9997
2 25112  45.0144 323.1343 0007904 323.4653  36.5659 14.46485181464422
ORBCOMM FM10            
1 25113U 97084B   25327.35771918  .00001762  00000+0  52744-3 0  9990
2 25113  45.0156 326.1102 0006925 295.4198  64.5936 14.46241989639559
ORBCOMM FM11            
1 25114U 97084C   25327.11394970  .00001834  00000+0  55023-3 0  9997
2 25114  45.0142 328.2078 0007708 295.3206  64.6847 14.45981394464478
ORBCOMM FM12            
1 25115U 97084D   25327.35056612  .00001725  00000+0  51972-3 0  9990
2 25115  45.0148 326.8059 0006792 293.4176  66.5961 14.46006090464307
ORBCOMM FM09            
1 25116U 97084E   25327.39763389  .00001588  00000+0  48300-3 0  9999
2 25116  45.0152 327.6831 0008008 286.1357  73.8613 14.45854274464514
